STARLINK-30409          
1 57820U 23138N   26068.49726037  .00001177  00000+0  53563-4 0  9990
2 57820  42.9995 234.8360 0001012 276.7860  83.2876 15.26737941138650
NUSAT-45 (UZMASAT-1)    
1 62640U 25009AH  26068.15592621  .00012539  00000+0  48087-3 0  9996
2 62640  97.3985 150.3373 0001172   1.4631 358.6611 15.26632732 63634
